GLOBALSTAR M084 [+]     
1 38040U 11080A   24106.89609457 -.00000077  00000+0  14884-3 0  9998
2 38040  52.0000 269.3021 0000851 126.1181  37.9492 12.62273318568986
GLOBALSTAR M080 [+]     
1 38041U 11080B   24106.87100083 -.00000076  00000+0  15543-3 0  9990
2 38041  52.0053 270.8371 0001069 125.9802  42.8573 12.62271266568827
GLOBALSTAR M082 [+]     
1 38042U 11080C   24106.80499484 -.00000083  00000+0  11567-3 0  9990
2 38042  52.0068 226.4387 0000374  48.5269 120.0564 12.62268051569528
GLOBALSTAR M092 [+]     
1 38043U 11080D   24106.90260594 -.00000068  00000+0  20235-3 0  9995
2 38043  52.0089 316.4961 0000586 103.6972 269.4106 12.62278090567992
GLOBALSTAR M090 [+]     
1 38044U 11080E   24106.63855853 -.00000085  00000+0  10560-3 0  9993
2 38044  51.9877 221.3029 0000462  92.5918 280.5190 12.62268100569668
GLOBALSTAR M086 [+]     
1 38045U 11080F   24106.52157969 -.00000085  00000+0  10460-3 0  9994
2 38045  51.9889 222.1777 0001511 102.0657 338.7430 12.62269488569555
GLOBALSTAR M097 [+]     
1 39072U 13005A   24106.76799892 -.00000109  00000+0 -29257-4 0  9990
2 39072  52.0024 135.5416 0000493  71.1738 288.9182 12.62262351516835
GLOBALSTAR M093 [+]     
1 39073U 13005B   24107.21649061 -.00000099  00000+0  27588-4 0  9996
2 39073  51.9787 128.1613 0000548  58.6323 301.4597 12.62263122516960
